TRANSPORTER-12 OBJECT AZ
1 62656U 25009AZ  26068.71026235  .00016057  00000+0  54903-3 0  9991
2 62656  97.3981 151.9913 0000987  45.3581 314.7740 15.30349724 63792
STARLINK-33670          
1 63413U 25065Q   26068.44365001  .00023727  00000+0  86897-3 0  9991
2 63413  43.0019 108.3108 0001796 254.9980 105.0673 15.27580361 52802
